TEVEL2-9                
1 63237U 25052AD  26063.13772533  .00026757  00000+0  96780-3 0  9992
2 63237  97.4070 318.8588 0007539 140.8467 219.3319 15.28379573 53966
TEVEL2-7                
1 63238U 25052AE  26063.22673460  .00027466  00000+0  99947-3 0  9998
2 63238  97.4074 318.9016 0007702 140.3363 219.8441 15.28174555 53975
TEVEL2-8                
1 63239U 25052AF  26063.23367777  .00027638  00000+0  10064-2 0  9994
2 63239  97.4070 318.8892 0007607 140.5842 219.5953 15.28151948 53977
HADES-ICM               
1 63492U 25052BN  26063.68172433  .00161747  00000+0  23438-2 0  9996
2 63492  97.3953 323.9519 0008515 120.9814 239.2278 15.55263348 54361
